0 COSMOS 2251 DEB
1 34998U 93036AFW 13286.98082473  .00001004  00000-0  34243-3 0  3713
2 34998 074.0147 120.2238 0024448 250.0616 259.4774 14.37585430234825
0 COSMOS 2251 DEB
1 34998U 93036AFW 13289.88751395  .00001182  00000-0  40141-3 0  3723
2 34998 074.0149 114.8660 0024349 244.3166 182.2239 14.37594102235232
0 COSMOS 2251 DEB
1 34998U 93036AFW 13291.90589284  .00001344  00000-0  45533-3 0  3736
2 34998 074.0152 111.1468 0024328 240.1957 187.9595 14.37598570235523
0 COSMOS 2251 DEB
1 34998U 93036AFW 13293.94035472  .00001500  00000-0  50712-3 0  3747
2 34998 074.0154 107.3974 0024277 236.1815 276.8202 14.37604411235823
0 COSMOS 2251 DEB
1 34998U 93036AFW 13296.16122998  .00001697  00000-0  57216-3 0  3758
2 34998 074.0157 103.3053 0024283 231.7540 250.5159 14.37611950236145
